sat21914
1 21914U 75052JS  20046.08294965 -.00000011  00000-0  11709-3 0  9995
2 21914  99.4517 256.7149 0637175 318.3763 203.2715 12.13324078245729
